0 THORAD AGENA D DEB
1 04971U 70025GR  13282.57937653  .00000119  00000-0  51915-3 0   251
2 04971 099.8729 311.4675 0345735 289.2330 203.7543 12.82866674 33604
0 THORAD AGENA D DEB
1 04971U 70025GR  13284.04368008  .00000159  00000-0  65049-3 0   265
2 04971 099.8725 312.7588 0345774 286.0106 126.3872 12.82867208 33795
0 THORAD AGENA D DEB
1 04971U 70025GR  13285.54834840  .00000140  00000-0  58687-3 0   274
2 04971 099.8721 314.0857 0345820 282.6988 235.4373 12.82867996 33980
0 THORAD AGENA D DEB
1 04971U 70025GR  13287.64625852  .00000167  00000-0  67599-3 0   280
2 04971 099.8714 315.9356 0345876 278.0809 204.2832 12.82868766 34259
0 THORAD AGENA D DEB
1 04971U 70025GR  13289.02879020  .00000155  00000-0  63793-3 0   292
2 04971 099.8711 317.1547 0345914 275.0399 109.2751 12.82869435 34434
0 THORAD AGENA D DEB
1 04971U 70025GR  13290.61009913  .00000145  00000-0  60437-3 0   308
2 04971 099.8710 318.5490 0345977 271.5640 212.2848 12.82870484 34634
0 THORAD AGENA D DEB
1 04971U 70025GR  13292.07711696  .00000145  00000-0  60289-3 0   314
2 04971 099.8710 319.8423 0346028 268.3371 147.4689 12.82871024 34821
0 THORAD AGENA D DEB
1 04971U 70025GR  13293.65059662  .00000168  00000-0  67998-3 0   327
2 04971 099.8710 321.2293 0346097 264.8771 214.3353 12.82871563 35027
0 THORAD AGENA D DEB
1 04971U 70025GR  13294.66639245  .00000159  00000-0  64804-3 0   334
2 04971 099.8711 322.1249 0346130 262.6436 225.6268 12.82871805 35154
0 THORAD AGENA D DEB
1 04971U 70025GR  13296.04766510  .00000164  00000-0  66455-3 0   345
2 04971 099.8710 323.3428 0346207 259.6108 124.8120 12.82872686 35337
